{
  "type": "FeatureCollection",
  "features": [
    {
      "type": "Feature",
      "properties": {
        "norad_id": 38867,
        "name": "INTELSAT 23 (IS-23)",
        "group": "intelsat",
        "lat": -0.0198673382402455,
        "lon": 18.497563911902148,
        "alt_km": 35795.9949809023,
        "timestamp": "2025-12-08T23:34:03.637582+00:00",
        "meta_object_name": "INTELSAT 23 (IS-23)",
        "meta_object_id": "2012-057A",
        "meta_epoch": "2025-12-08T11:38:26.026944",
        "meta_mean_motion": 1.00265555,
        "meta_eccentricity": 0.00019336,
        "meta_inclination": 0.0402,
        "meta_ra_of_asc_node": 92.6513,
        "meta_arg_of_pericenter": 110.5856,
        "meta_mean_anomaly": 355.8774,
        "meta_ephemeris_type": 0,
        "meta_classification_type": "U",
        "meta_norad_cat_id": 38867,
        "meta_element_set_no": 999,
        "meta_rev_at_epoch": 4804,
        "meta_bstar": 0,
        "meta_mean_motion_dot": -2.82e-06,
        "meta_mean_motion_ddot": 0,
        "tle_line1": "1 38867U 12057A   25342.48502346 -.00000282  00000+0  00000+0 0  9996",
        "tle_line2": "2 38867   0.0402  92.6513 0001933 110.5856 355.8774  1.00265555 48042"
      },
      "geometry": {
        "type": "Point",
        "coordinates": [
          18.497563911902148,
          -0.0198673382402455
        ]
      }
    },
    {
      "type": "Feature",
      "properties": {
        "norad_id": 39360,
        "name": "FM-6",
        "group": "intelsat",
        "lat": -0.0024171373508423497,
        "lon": -44.63595738897966,
        "alt_km": 35798.19893033478,
        "timestamp": "2025-12-08T23:34:03.637594+00:00",
        "meta_object_name": "FM-6",
        "meta_object_id": "2013-058A",
        "meta_epoch": "2025-12-08T13:15:20.429856",
        "meta_mean_motion": 1.0026711,
        "meta_eccentricity": 0.00031905,
        "meta_inclination": 0.0119,
        "meta_ra_of_asc_node": 96.1147,
        "meta_arg_of_pericenter": 75.3013,
        "meta_mean_anomaly": 348.8342,
        "meta_ephemeris_type": 0,
        "meta_classification_type": "U",
        "meta_norad_cat_id": 39360,
        "meta_element_set_no": 999,
        "meta_rev_at_epoch": 4416,
        "meta_bstar": 0,
        "meta_mean_motion_dot": -1.4e-07,
        "meta_mean_motion_ddot": 0,
        "tle_line1": "1 39360U 13058A   25342.55231979 -.00000014  00000+0  00000+0 0  9999",
        "tle_line2": "2 39360   0.0119  96.1147 0003190  75.3013 348.8342  1.00267110 44169"
      },
      "geometry": {
        "type": "Point",
        "coordinates": [
          -44.63595738897966,
          -0.0024171373508423497
        ]
      }
    },
    {
      "type": "Feature",
      "properties": {
        "norad_id": 40271,
        "name": "INTELSAT 30 (IS-30)",
        "group": "intelsat",
        "lat": -0.012645209331158931,
        "lon": -23.577638539895357,
        "alt_km": 35788.17605437839,
        "timestamp": "2025-12-08T23:34:03.637606+00:00",
        "meta_object_name": "INTELSAT 30 (IS-30)",
        "meta_object_id": "2014-062A",
        "meta_epoch": "2025-12-08T12:25:08.959584",
        "meta_mean_motion": 1.0027093,
        "meta_eccentricity": 0.00012019,
        "meta_inclination": 0.0126,
        "meta_ra_of_asc_node": 12.2657,
        "meta_arg_of_pericenter": 75.3577,
        "meta_mean_anomaly": 81.1316,
        "meta_ephemeris_type": 0,
        "meta_classification_type": "U",
        "meta_norad_cat_id": 40271,
        "meta_element_set_no": 999,
        "meta_rev_at_epoch": 487,
        "meta_bstar": 0,
        "meta_mean_motion_dot": -1.48e-06,
        "meta_mean_motion_ddot": 0,
        "tle_line1": "1 40271U 14062A   25342.51746481 -.00000148  00000+0  00000+0 0  9991",
        "tle_line2": "2 40271   0.0126  12.2657 0001201  75.3577  81.1316  1.00270930  4877"
      },
      "geometry": {
        "type": "Point",
        "coordinates": [
          -23.577638539895357,
          -0.012645209331158931
        ]
      }
    },
    {
      "type": "Feature",
      "properties": {
        "norad_id": 40333,
        "name": "DIRECTV 14",
        "group": "intelsat",
        "lat": -0.0023111710535164668,
        "lon": -27.713566572737175,
        "alt_km": 35786.01680025377,
        "timestamp": "2025-12-08T23:34:03.637617+00:00",
        "meta_object_name": "DIRECTV 14",
        "meta_object_id": "2014-078B",
        "meta_epoch": "2025-12-08T12:22:13.969344",
        "meta_mean_motion": 1.0027432,
        "meta_eccentricity": 4.815e-05,
        "meta_inclination": 0.0167,
        "meta_ra_of_asc_node": 332.3244,
        "meta_arg_of_pericenter": 251.5632,
        "meta_mean_anomaly": 299.9766,
        "meta_ephemeris_type": 0,
        "meta_classification_type": "U",
        "meta_norad_cat_id": 40333,
        "meta_element_set_no": 999,
        "meta_rev_at_epoch": 4013,
        "meta_bstar": 0,
        "meta_mean_motion_dot": -1.24e-06,
        "meta_mean_motion_ddot": 0,
        "tle_line1": "1 40333U 14078B   25342.51543946 -.00000124  00000+0  00000+0 0  9992",
        "tle_line2": "2 40333   0.0167 332.3244 0000481 251.5632 299.9766  1.00274320 40132"
      },
      "geometry": {
        "type": "Point",
        "coordinates": [
          -27.713566572737175,
          -0.0023111710535164668
        ]
      }
    },
    {
      "type": "Feature",
      "properties": {
        "norad_id": 40663,
        "name": "DIRECTV 15",
        "group": "intelsat",
        "lat": -0.034367770176532066,
        "lon": -31.36982427591166,
        "alt_km": 35785.98604087738,
        "timestamp": "2025-12-08T23:34:03.637629+00:00",
        "meta_object_name": "DIRECTV 15",
        "meta_object_id": "2015-026A",
        "meta_epoch": "2025-12-08T13:18:55.673856",
        "meta_mean_motion": 1.0026897,
        "meta_eccentricity": 3.164e-05,
        "meta_inclination": 0.0367,
        "meta_ra_of_asc_node": 78.2535,
        "meta_arg_of_pericenter": 202.6334,
        "meta_mean_anomaly": 253.5446,
        "meta_ephemeris_type": 0,
        "meta_classification_type": "U",
        "meta_norad_cat_id": 40663,
        "meta_element_set_no": 999,
        "meta_rev_at_epoch": 3855,
        "meta_bstar": 0,
        "meta_mean_motion_dot": -1e-06,
        "meta_mean_motion_ddot": 0,
        "tle_line1": "1 40663U 15026A   25342.55481104 -.00000100  00000+0  00000+0 0  9997",
        "tle_line2": "2 40663   0.0367  78.2535 0000316 202.6334 253.5446  1.00268970 38550"
      },
      "geometry": {
        "type": "Point",
        "coordinates": [
          -31.36982427591166,
          -0.034367770176532066
        ]
      }
    },
    {
      "type": "Feature",
      "properties": {
        "norad_id": 40664,
        "name": "SKY MEXICO-1",
        "group": "intelsat",
        "lat": -0.015609748055150675,
        "lon": -7.242869967439073,
        "alt_km": 35784.33542502563,
        "timestamp": "2025-12-08T23:34:03.637641+00:00",
        "meta_object_name": "SKY MEXICO-1",
        "meta_object_id": "2015-026B",
        "meta_epoch": "2025-12-08T12:34:27.241824",
        "meta_mean_motion": 1.00270912,
        "meta_eccentricity": 0.00027697,
        "meta_inclination": 0.0221,
        "meta_ra_of_asc_node": 53.0322,
        "meta_arg_of_pericenter": 219.8086,
        "meta_mean_anomaly": 274.5373,
        "meta_ephemeris_type": 0,
        "meta_classification_type": "U",
        "meta_norad_cat_id": 40664,
        "meta_element_set_no": 999,
        "meta_rev_at_epoch": 3854,
        "meta_bstar": 0,
        "meta_mean_motion_dot": -2.32e-06,
        "meta_mean_motion_ddot": 0,
        "tle_line1": "1 40664U 15026B   25342.52392641 -.00000232  00000+0  00000+0 0  9998",
        "tle_line2": "2 40664   0.0221  53.0322 0002769 219.8086 274.5373  1.00270912 38543"
      },
      "geometry": {
        "type": "Point",
        "coordinates": [
          -7.242869967439073,
          -0.015609748055150675
        ]
      }
    },
    {
      "type": "Feature",
      "properties": {
        "norad_id": 40874,
        "name": "INTELSAT 34 (IS-34)",
        "group": "intelsat",
        "lat": 0.02535629978672494,
        "lon": 15.99616652510632,
        "alt_km": 35789.526785162096,
        "timestamp": "2025-12-08T23:34:03.637653+00:00",
        "meta_object_name": "INTELSAT 34 (IS-34)",
        "meta_object_id": "2015-039A",
        "meta_epoch": "2025-12-08T13:20:16.274688",
        "meta_mean_motion": 1.00271129,
        "meta_eccentricity": 8.055e-05,
        "meta_inclination": 0.0141,
        "meta_ra_of_asc_node": 304.4287,
        "meta_arg_of_pericenter": 233.4729,
        "meta_mean_anomaly": 44.2351,
        "meta_ephemeris_type": 0,
        "meta_classification_type": "U",
        "meta_norad_cat_id": 40874,
        "meta_element_set_no": 999,
        "meta_rev_at_epoch": 3771,
        "meta_bstar": 0,
        "meta_mean_motion_dot": -2.83e-06,
        "meta_mean_motion_ddot": 0,
        "tle_line1": "1 40874U 15039A   25342.55574392 -.00000283  00000+0  00000+0 0  9999",
        "tle_line2": "2 40874   0.0141 304.4287 0000805 233.4729  44.2351  1.00271129 37712"
      },
      "geometry": {
        "type": "Point",
        "coordinates": [
          15.99616652510632,
          0.02535629978672494
        ]
      }
    }
  ]
}